[{"OBJECT_NAME":"STARLINK-34225","OBJECT_ID":"2025-129C","EPOCH":"2026-03-09T10:21:52.915680","MEAN_MOTION":14.98334097,"ECCENTRICITY":0.00035263,"INCLINATION":70.0011,"RA_OF_ASC_NODE":75.3047,"ARG_OF_PERICENTER":266.6625,"MEAN_ANOMALY":93.413,"EPHEMERIS_TYPE":0,"CLASSIFICATION_TYPE":"U","NORAD_CAT_ID":64414,"ELEMENT_SET_NO":999,"REV_AT_EPOCH":4124,"BSTAR":0.00014789839,"MEAN_MOTION_DOT":1.672e-5,"MEAN_MOTION_DDOT":0},{"OBJECT_NAME":"CZ-6A DEB","OBJECT_ID":"2022-151WD","EPOCH":"2026-03-09T18:15:50.585760","MEAN_MOTION":14.95909888,"ECCENTRICITY":0.00406186,"INCLINATION":98.6454,"RA_OF_ASC_NODE":143.7847,"ARG_OF_PERICENTER":193.5421,"MEAN_ANOMALY":166.4711,"EPHEMERIS_TYPE":0,"CLASSIFICATION_TYPE":"U","NORAD_CAT_ID":55212,"ELEMENT_SET_NO":999,"REV_AT_EPOCH":17107,"BSTAR":0.0046813987,"MEAN_MOTION_DOT":0.00053565,"MEAN_MOTION_DDOT":0}]
